{
  "norad_id": 45412,
  "name": "STARLINK-1296",
  "history": [
    {
      "epoch": "2026-03-28T21:21:49.041216Z",
      "apogee_km": 472.31102026985536,
      "perigee_km": 469.9469276262871,
      "latitude_deg": 1.6607259569544646e-05,
      "longitude_deg": -106.77013475022476,
      "height_km": 472.5494487202219,
      "semi_major_axis_km": 6849.2659739480705,
      "eccentricity": 0.00017258,
      "inclination_deg": 53.1566,
      "raan_deg": 39.9883,
      "arg_perigee_deg": 116.2405,
      "mean_anomaly_deg": 243.8774,
      "mean_motion_rev_day": 15.31569521
    },
    {
      "epoch": "2026-03-29T03:37:41.181312Z",
      "apogee_km": 472.5276478165906,
      "perigee_km": 469.52771368642243,
      "latitude_deg": 1.2804002218589463e-05,
      "longitude_deg": 157.78933885984782,
      "height_km": 472.7877880644543,
      "semi_major_axis_km": 6849.164680751506,
      "eccentricity": 0.000219,
      "inclination_deg": 53.1572,
      "raan_deg": 38.7723,
      "arg_perigee_deg": 125.1023,
      "mean_anomaly_deg": 235.0184,
      "mean_motion_rev_day": 15.31603497
    },
    {
      "epoch": "2026-03-30T03:07:06.911904Z",
      "apogee_km": 472.2329272102925,
      "perigee_km": 468.9797741187276,
      "latitude_deg": 3.2975152231228615e-05,
      "longitude_deg": 159.91162390638303,
      "height_km": 472.59476870462123,
      "semi_major_axis_km": 6848.74335066451,
      "eccentricity": 0.0002375,
      "inclination_deg": 53.1588,
      "raan_deg": 34.2165,
      "arg_perigee_deg": 132.1041,
      "mean_anomaly_deg": 228.0163,
      "mean_motion_rev_day": 15.31744834
    },
    {
      "epoch": "2026-03-30T20:20:36.495168Z",
      "apogee_km": 471.90515129804953,
      "perigee_km": 468.5987491128908,
      "latitude_deg": -1.8589115762030852e-05,
      "longitude_deg": -102.51107814228602,
      "height_km": 472.31368539309153,
      "semi_major_axis_km": 6848.38895020547,
      "eccentricity": 0.0002414,
      "inclination_deg": 53.1594,
      "raan_deg": 30.8745,
      "arg_perigee_deg": 134.7422,
      "mean_anomaly_deg": 225.3776,
      "mean_motion_rev_day": 15.31863736
    },
    {
      "epoch": "2026-03-31T05:44:17.983392Z",
      "apogee_km": 471.7774405719165,
      "perigee_km": 468.39167983255265,
      "latitude_deg": -5.019050753742398e-05,
      "longitude_deg": 114.3563981232407,
      "height_km": 472.22276647446586,
      "semi_major_axis_km": 6848.221560202234,
      "eccentricity": 0.0002472,
      "inclination_deg": 53.1595,
      "raan_deg": 29.0507,
      "arg_perigee_deg": 137.1,
      "mean_anomaly_deg": 223.0194,
      "mean_motion_rev_day": 15.31919901
    }
  ]
}